NORAD_CAT_ID,OBJECT_NAME,OBJECT_TYPE,EPOCH,MEAN_MOTION,ECCENTRICITY,INCLINATION,RA_OF_ASC_NODE,ARG_OF_PERICENTER,MEAN_ANOMALY,BSTAR,MEAN_MOTION_DOT,MEAN_MOTION_DDOT,TLE_LINE0,TLE_LINE1,TLE_LINE2,SEMIMAJOR_AXIS,PERIOD,APOGEE,PERIGEE,DECAYED
55317.0,STARLINK-5265,PAYLOAD,2023-10-10 17:39:15,14.98334268,0.0002844,70.0015,65.6874,267.8915,92.1919,7.3288e-05,7.82e-06,0.0,0 STARLINK-5265,1 55317U 23010BA  23283.73559649  .00000782  00000-0  73288-4 0  9992,2 55317  70.0015  65.6874 0002844 267.8915  92.1919 14.98334268 42687,6950.18,96.107,574.021,570.068,0.0
55317.0,STARLINK-5265,PAYLOAD,2023-10-11 12:52:53,14.98323285,0.0002956,70.0011,63.666,270.6842,89.3978,-1.9665e-05,-3.28e-06,0.0,0 STARLINK-5265,1 55317U 23010BA  23284.53672553 -.00000328  00000-0 -19665-4 0  9998,2 55317  70.0011  63.6660 0002956 270.6842  89.3978 14.98323285 41622,6950.214,96.107,574.133,570.024,0.0
55317.0,STARLINK-5265,PAYLOAD,2023-10-11 19:17:24,14.98330328,0.0003015,70.0015,62.9945,271.3989,88.6825,4.4691e-05,4.4e-06,0.0,0 STARLINK-5265,1 55317U 23010BA  23284.80375973  .00000440  00000-0  44691-4 0  9994,2 55317  70.0015  62.9945 0003015 271.3989  88.6825 14.98330328 41664,6950.192,96.107,574.152,569.961,0.0
55317.0,STARLINK-5265,PAYLOAD,2023-10-12 12:54:53,14.98332431,0.0003121,70.0014,61.1435,271.0872,88.993,-5.622e-05,-7.64e-06,0.0,0 STARLINK-5265,1 55317U 23010BA  23285.53812097 -.00000764  00000-0 -56220-4 0  9990,2 55317  70.0014  61.1435 0003121 271.0872  88.9930 14.98332431 42954,6950.185,96.107,574.22,569.881,0.0
55317.0,STARLINK-5265,PAYLOAD,2023-10-12 19:19:25,14.98339846,0.000307,70.0015,60.4697,271.225,88.8557,2.8959e-05,2.53e-06,0.0,0 STARLINK-5265,1 55317U 23010BA  23285.80515292  .00000253  00000-0  28959-4 0  9996,2 55317  70.0015  60.4697 0003070 271.2250  88.8557 14.98339846 41817,6950.162,96.106,574.161,569.894,0.0
55317.0,STARLINK-5265,PAYLOAD,2023-10-13 12:56:54,14.98323009,0.0002945,70.0022,58.6187,273.8614,86.2208,2.3132e-05,1.83e-06,0.0,0 STARLINK-5265,1 55317U 23010BA  23286.53952339  .00000183  00000-0  23132-4 0  9994,2 55317  70.0022  58.6187 0002945 273.8614  86.2208 14.98323009 41921,6950.215,96.107,574.126,570.033,0.0
55317.0,STARLINK-5265,PAYLOAD,2023-10-13 14:33:02,14.98323162,0.0002949,70.0023,58.4505,273.7767,86.3055,2.9735e-05,2.62e-06,0.0,0 STARLINK-5265,1 55317U 23010BA  23286.60628334  .00000262  00000-0  29735-4 0  9990,2 55317  70.0023  58.4505 0002949 273.7767  86.3055 14.98323162 43110,6950.214,96.107,574.129,570.029,0.0
55317.0,STARLINK-5265,PAYLOAD,2023-10-13 19:21:26,14.98329913,0.0002773,70.0023,57.9462,268.5239,91.5602,7.2907e-05,7.77e-06,0.0,0 STARLINK-5265,1 55317U 23010BA  23286.80655786  .00000777  00000-0  72907-4 0  9993,2 55317  70.0023  57.9462 0002773 268.5239  91.5602 14.98329913 41964,6950.193,96.107,573.985,570.131,0.0
55317.0,STARLINK-5265,PAYLOAD,2023-10-14 12:58:55,14.98331266,0.0002452,70.0026,56.0947,258.6972,101.3912,-2.5314e-06,-1.23e-06,0.0,0 STARLINK-5265,1 55317U 23010BA  23287.54091797 -.00000123  00000-0 -25314-5 0  9999,2 55317  70.0026  56.0947 0002452 258.6972 101.3912 14.98331266 43255,6950.189,96.107,573.758,570.35,0.0
55317.0,STARLINK-5265,PAYLOAD,2023-10-14 19:23:27,14.98333462,0.0002556,70.0023,55.4205,257.6225,102.4649,2.1479e-05,1.63e-06,0.0,0 STARLINK-5265,1 55317U 23010BA  23287.80795517  .00000163  00000-0  21479-4 0  9998,2 55317  70.0023  55.4205 0002556 257.6225 102.4649 14.98333462 42110,6950.182,96.107,573.824,570.271,0.0
55317.0,STARLINK-5265,PAYLOAD,2023-10-15 13:00:56,14.98322858,0.000264,70.0021,53.5681,259.3855,100.7007,-5.3122e-05,-7.27e-06,0.0,0 STARLINK-5265,1 55317U 23010BA  23288.54232456 -.00000727  00000-0 -53122-4 0  9996,2 55317  70.0021  53.5681 0002640 259.3855 100.7007 14.98322858 42225,6950.215,96.107,573.915,570.245,0.0
55317.0,STARLINK-5265,PAYLOAD,2023-10-15 14:37:05,14.98321619,0.0002705,70.0021,53.3999,261.7509,98.3343,-6.4526e-05,-8.63e-06,0.0,0 STARLINK-5265,1 55317U 23010BA  23288.60908602 -.00000863  00000-0 -64526-4 0  9997,2 55317  70.0021  53.3999 0002705 261.7509  98.3343 14.98321619 43411,6950.219,96.108,573.964,570.204,0.0
55317.0,STARLINK-5265,PAYLOAD,2023-10-15 17:49:20,14.98324525,0.0002641,70.0021,53.0633,260.8274,99.2587,-2.1382e-05,-3.48e-06,0.0,0 STARLINK-5265,1 55317U 23010BA  23288.74260363 -.00000348  00000-0 -21382-4 0  9998,2 55317  70.0021  53.0633 0002641 260.8274  99.2587 14.98324525 43432,6950.21,96.107,573.91,570.239,0.0
55317.0,STARLINK-5265,PAYLOAD,2023-10-16 11:26:49,14.98329708,0.0003011,70.0014,51.2123,268.4521,91.6293,-2.1155e-05,-3.45e-06,0.0,0 STARLINK-5265,1 55317U 23010BA  23289.47696141 -.00000345  00000-0 -21155-4 0  9991,2 55317  70.0014  51.2123 0003011 268.4521  91.6293 14.98329708 42368,6950.194,96.107,574.151,569.966,0.0
55317.0,STARLINK-5265,PAYLOAD,2023-10-16 14:39:05,14.98330243,0.0002991,70.0015,50.8757,268.328,91.7537,-9.5806e-06,-2.07e-06,0.0,0 STARLINK-5265,1 55317U 23010BA  23289.61048081 -.00000207  00000-0 -95806-5 0  9993,2 55317  70.0015  50.8757 0002991 268.3280  91.7537 14.98330243 43565,6950.192,96.107,574.136,569.978,0.0
55317.0,STARLINK-5265,PAYLOAD,2023-10-16 16:15:13,14.98333463,0.0002969,70.0016,50.7076,268.9878,91.094,1.7133e-05,1.11e-06,0.0,0 STARLINK-5265,1 55317U 23010BA  23289.67723792  .00000111  00000-0  17133-4 0  9996,2 55317  70.0016  50.7076 0002969 268.9878  91.0940 14.98333463 43572,6950.182,96.107,574.111,569.984,0.0
55317.0,STARLINK-5265,PAYLOAD,2023-10-17 11:28:48,14.98345421,0.0002972,70.0017,48.6882,270.3218,89.76,0.00022879,2.639e-05,0.0,0 STARLINK-5265,1 55317U 23010BA  23290.47833922  .00002639  00000-0  22879-3 0  9992,2 55317  70.0017  48.6882 0002972 270.3218  89.7600 14.98345421 42510,6950.145,96.106,574.076,569.945,0.0
55317.0,STARLINK-5265,PAYLOAD,2023-10-18 11:30:50,14.98327246,0.0002473,70.0018,46.1634,246.5543,113.5356,-5.0291e-05,-6.93e-06,0.0,0 STARLINK-5265,1 55317U 23010BA  23291.47975562 -.00000693  00000-0 -50291-4 0  9990,2 55317  70.0018  46.1634 0002473 246.5543 113.5356 14.98327246 42666,6950.201,96.107,573.785,570.348,0.0
55317.0,STARLINK-5265,PAYLOAD,2023-10-18 14:43:07,14.98326326,0.0002545,70.0012,45.8244,268.9506,91.1362,-0.00011454,-1.459e-05,0.0,0 STARLINK-5265,1 55317U 23010BA  23291.61327972 -.00001459  00000-0 -11454-3 0  9990,2 55317  70.0012  45.8244 0002545 268.9506  91.1362 14.98326326 43869,6950.204,96.107,573.838,570.3,0.0
55317.0,STARLINK-5265,PAYLOAD,2023-10-19 11:32:51,14.98335562,0.0001945,70.0057,43.6416,250.271,109.824,-6.1644e-05,-8.28e-06,0.0,0 STARLINK-5265,1 55317U 23010BA  23292.48114915 -.00000828  00000-0 -61644-4 0  9993,2 55317  70.0057  43.6416 0001945 250.2710 109.8240 14.98335562 42817,6950.176,96.107,573.393,570.689,0.0
55317.0,STARLINK-5265,PAYLOAD,2023-10-20 11:34:53,14.98308756,0.0003262,70.0019,41.1133,272.9199,87.1587,2.1359e-05,1.62e-06,0.0,0 STARLINK-5265,1 55317U 23010BA  23293.48256312  .00000162  00000-0  21359-4 0  9990,2 55317  70.0019  41.1133 0003262 272.9199  87.1587 14.98308756 42963,6950.259,96.108,574.391,569.856,0.0
55317.0,STARLINK-5265,PAYLOAD,2023-10-20 17:59:25,14.98308926,0.0002527,70.0034,40.4409,267.095,92.992,6.9689e-05,7.38e-06,0.0,0 STARLINK-5265,1 55317U 23010BA  23293.74960467  .00000738  00000-0  69689-4 0  9999,2 55317  70.0034  40.4409 0002527 267.0950  92.9920 14.98308926 44181,6950.258,96.108,573.879,570.367,0.0
55317.0,STARLINK-5265,PAYLOAD,2023-10-21 13:13:01,14.98338157,0.0002831,70.0018,38.4195,265.3707,94.7128,-4.7191e-05,-6.56e-06,0.0,0 STARLINK-5265,1 55317U 23010BA  23294.55071040 -.00000656  00000-0 -47191-4 0  9994,2 55317  70.0018  38.4195 0002831 265.3707  94.7128 14.98338157 43123,6950.168,96.106,574.0,570.065,0.0
55317.0,STARLINK-5265,PAYLOAD,2023-10-21 16:25:17,14.98337273,0.0002787,70.0025,38.0845,266.2503,93.8338,2.2584e-05,1.77e-06,0.0,0 STARLINK-5265,1 55317U 23010BA  23294.68422836  .00000177  00000-0  22584-4 0  9996,2 55317  70.0025  38.0845 0002787 266.2503  93.8338 14.98337273 44327,6950.17,96.107,573.972,570.098,0.0
55317.0,STARLINK-5265,PAYLOAD,2023-10-22 00:25:58,14.98319165,0.0002629,70.0029,37.2423,276.802,83.284,6.5642e-05,6.9e-06,0.0,0 STARLINK-5265,1 55317U 23010BA  23295.01803858  .00000690  00000-0  65642-4 0  9993,2 55317  70.0029  37.2423 0002629 276.8020  83.2840 14.98319165 43195,6950.226,96.108,573.919,570.264,0.0
55317.0,STARLINK-5265,PAYLOAD,2023-10-22 13:15:03,14.98322613,0.0002656,70.0028,35.8957,266.585,93.5005,0.00011591,1.29e-05,0.0,0 STARLINK-5265,1 55317U 23010BA  23295.55211811  .00001290  00000-0  11591-3 0  9994,2 55317  70.0028  35.8957 0002656 266.5850  93.5005 14.98322613 44456,6950.216,96.107,573.927,570.235,0.0
55317.0,STARLINK-5265,PAYLOAD,2023-10-22 16:27:19,14.98319482,0.0002947,70.0018,35.5579,268.8367,91.2454,5.1296e-05,5.19e-06,0.0,0 STARLINK-5265,1 55317U 23010BA  23295.68564178  .00000519  00000-0  51296-4 0  9995,2 55317  70.0018  35.5579 0002947 268.8367  91.2454 14.98319482 44478,6950.225,96.108,574.139,570.042,0.0
55317.0,STARLINK-5265,PAYLOAD,2023-10-23 00:27:59,14.98327039,0.0002968,70.0019,34.717,269.1381,90.9438,-2.6162e-05,-4.05e-06,0.0,0 STARLINK-5265,1 55317U 23010BA  23296.01944113 -.00000405  00000-0 -26162-4 0  9994,2 55317  70.0019  34.7170 0002968 269.1381  90.9438 14.98327039 43340,6950.202,96.107,574.13,570.004,0.0
55317.0,STARLINK-5265,PAYLOAD,2023-10-23 13:17:03,14.98334496,0.0002942,70.0019,33.3709,268.3709,91.7113,1.0695e-05,3.5e-07,0.0,0 STARLINK-5265,1 55317U 23010BA  23296.55351558  .00000035  00000-0  10695-4 0  9999,2 55317  70.0019  33.3709 0002942 268.3709  91.7113 14.98334496 43423,6950.179,96.107,574.089,569.999,0.0
55317.0,STARLINK-5265,PAYLOAD,2023-10-24 13:19:04,14.98334603,0.0002672,70.0026,30.8454,269.7657,90.3196,0.00021423,2.464e-05,0.0,0 STARLINK-5265,1 55317U 23010BA  23297.55491036  .00002464  00000-0  21423-3 0  9994,2 55317  70.0026  30.8454 0002672 269.7657  90.3196 14.98334603 43579,6950.179,96.107,573.901,570.187,0.0
